OBJECT_NAME,OBJECT_ID,EPOCH,MEAN_MOTION,ECCENTRICITY,INCLINATION,RA_OF_ASC_NODE,ARG_OF_PERICENTER,MEAN_ANOMALY,EPHEMERIS_TYPE,CLASSIFICATION_TYPE,NORAD_CAT_ID,ELEMENT_SET_NO,REV_AT_EPOCH,BSTAR,MEAN_MOTION_DOT,MEAN_MOTION_DDOT
GALAXY 17 (G-17),2007-016B,2026-06-25T12:11:39.293952,1.00271571,.000454,2.9931,79.8023,18.1719,273.5770,0,U,31307,999,6988,0,-.199E-5,0
INTELSAT 11 (IS-11),2007-044B,2026-06-25T03:49:51.597408,0.99048006,.00029223,3.5864,78.5794,84.1600,258.8083,0,U,32253,999,6852,0,-.13E-6,0
WGS F1 (USA 195),2007-046A,2026-06-25T12:23:53.121120,1.00267659,.00005792,0.0306,81.4967,301.5415,34.0762,0,U,32258,999,5241,0,-.257E-5,0
SKYNET 5B,2007-056B,2026-06-25T07:35:09.566016,1.00270182,.00034243,5.2721,73.4078,24.0134,314.9154,0,U,32294,999,6827,0,.145E-5,0
ASTRA 4A,2007-057A,2026-06-25T12:37:21.828576,1.00270771,.00025812,0.0215,314.9956,138.4617,14.3465,0,U,32299,999,5173,0,.42E-6,0
HORIZONS-2,2007-063B,2026-06-25T12:14:53.983392,1.00271711,.00041357,2.6236,80.5312,5.0731,297.9685,0,U,32388,999,6789,0,-.245E-5,0
THURAYA-3,2008-001A,2026-06-25T04:21:57.951072,1.00008917,.00018521,6.0028,35.8135,142.7498,228.6687,0,U,32404,999,6757,0,.22E-6,0
THOR 5,2008-006A,2026-06-25T07:27:47.771712,1.00271032,.00026571,0.0429,253.3156,202.7363,288.5960,0,U,32487,999,6739,0,.1E-7,0
AMC-14,2008-011A,2026-06-24T02:42:00.534816,1.00356055,.00451778,24.0123,20.4352,7.5191,352.4523,0,U,32708,999,6823,0,-.74E-6,0
DIRECTV 11,2008-013A,2026-06-25T12:07:39.677376,1.00271331,.00003549,0.0129,247.1513,192.1954,277.0256,0,U,32729,999,4567,0,-.115E-5,0
ICO G1,2008-016A,2026-06-25T12:09:31.997376,1.00272719,.00023501,5.5278,36.1013,45.2317,281.8371,0,U,32763,999,6662,0,-.167E-5,0
VINASAT-1,2008-018A,2026-06-25T14:05:38.664384,1.00269039,.00017026,0.0253,301.7728,162.8997,152.3833,0,U,32767,999,6667,0,-.318E-5,0
STAR ONE C2,2008-018B,2026-06-25T12:17:23.743104,1.00271549,.0002899,1.2624,82.4018,19.8826,290.7177,0,U,32768,999,6673,0,-.267E-5,0
AMOS-3,2008-022A,2026-06-25T12:48:49.531104,1.00481671,.00024392,0.4771,86.1346,65.9215,358.9492,0,U,32794,999,8242,0,.124E-5,0
GALAXY 18 (G-18),2008-024A,2026-06-25T12:00:55.322784,1.00269192,.00032149,0.0242,5.0549,92.4566,233.3677,0,U,32951,999,4593,0,0,0
ZHONGXING-9,2008-028A,2026-06-25T09:36:59.533920,1.00271616,.00040395,0.7908,85.2719,351.2558,73.6485,0,U,33051,999,6612,0,-.239E-5,0
SKYNET 5C,2008-030A,2026-06-25T09:05:31.513344,1.00271920,.00043892,3.8100,76.9491,23.8068,291.3522,0,U,33055,999,6603,0,-.133E-5,0
TURKSAT 3A,2008-030B,2026-06-25T12:47:57.113952,1.00275479,.00052932,0.0320,68.4766,10.1125,69.0800,0,U,33056,999,5244,0,.156E-5,0
ECHOSTAR 11,2008-035A,2026-06-25T11:52:50.426112,1.00271854,.00027246,1.0268,84.1049,354.4469,263.4835,0,U,33207,999,5129,0,-.49E-6,0
SUPERBIRD-C2,2008-038A,2026-06-25T14:05:38.664384,1.00273165,.00064247,2.3828,81.1682,27.5079,152.4563,0,U,33274,999,10581,0,-.298E-5,0
INMARSAT 4-F3,2008-039A,2026-06-25T12:08:02.141376,1.00271537,.00026679,4.2997,31.6461,67.7170,258.2902,0,U,33278,999,4662,0,-.134E-5,0
NIMIQ 4,2008-044A,2026-06-25T12:12:31.710240,1.00270100,.00018701,0.0153,313.7054,142.6561,278.4077,0,U,33373,999,6506,0,-.21E-5,0
GALAXY 19 (G-19),2008-045A,2026-06-25T12:08:17.117088,1.00270817,.000281,0.0445,260.5034,202.0976,256.1150,0,U,33376,999,6498,0,-.129E-5,0
ASTRA 1M,2008-057A,2026-06-25T07:33:32.220864,1.00276144,.00052587,0.3176,82.6368,28.6832,294.9435,0,U,33436,999,4581,0,.131E-5,0
EUTELSAT HOTBIRD 13C,2008-065A,2026-06-25T12:21:38.337120,1.00273785,.0003476,2.9716,79.0991,11.4953,318.1469,0,U,33459,999,4742,0,-.275E-5,0
EXPRESS-AM44,2009-007A,2026-06-25T09:07:23.834208,1.00271588,.00042173,3.4853,78.3011,7.2039,313.8429,0,U,33595,999,5236,0,-.82E-6,0
NSS-9,2009-008A,2026-06-25T13:45:11.418912,1.00273842,.00022672,1.2836,82.5909,356.3647,224.1248,0,U,33749,999,6360,0,.81E-6,0
TELSTAR 11N,2009-009A,2026-06-25T12:25:08.002272,1.00272414,.00026403,0.0431,81.6963,12.0931,328.5990,0,U,34111,999,4632,0,-.241E-5,0
WGS F2 (USA 204),2009-017A,2026-06-25T06:51:38.633184,1.00268973,.00001853,0.0176,17.7243,72.3281,343.7911,0,U,34713,999,4569,0,.78E-6,0
SES-7 (PROTOSTAR 2),2009-027A,2026-06-25T09:41:29.102784,1.00270011,.00008077,0.0337,63.9279,104.0049,359.2085,0,U,34941,999,6271,0,-.335E-5,0
MEASAT-3A,2009-032A,2026-06-25T09:56:17.274048,1.00271204,.00032102,0.0290,30.6947,58.0935,133.8428,0,U,35362,999,811,0,-.101E-5,0
GOES 14,2009-033A,2026-06-25T14:05:38.664384,1.00108737,.00022121,1.7122,82.9509,17.8256,161.2935,0,U,35491,999,667,0,-.311E-5,0
FM-5,2009-034A,2026-06-25T08:46:03.380160,1.00270339,.00007381,0.0203,294.4204,45.0543,339.3759,0,U,35493,999,4672,0,-.19E-5,0
TERRESTAR-1,2009-035A,2026-06-25T05:27:38.491776,1.00273021,.00026603,5.1797,48.7968,39.0366,156.4293,0,U,35496,999,6221,0,-.51E-6,0
ASIASAT 5,2009-042A,2026-06-25T13:04:38.235072,1.00263386,.00014632,0.0466,63.7430,39.1866,107.4558,0,U,35696,999,6179,0,0,0
JCSAT-12 (JCSAT-RA),2009-044A,2026-06-25T09:48:20.944800,1.00271539,.00001647,0.0132,316.9871,297.2573,298.4273,0,U,35755,999,6169,0,-.318E-5,0
OPTUS D3,2009-044B,2026-06-24T16:48:35.091360,1.00270413,.00031963,0.8760,268.6977,187.9464,224.4795,0,U,35756,999,6164,0,-.136E-5,0
NIMIQ 5,2009-050A,2026-06-25T12:15:16.447392,1.00271432,.00029427,0.0401,271.8309,172.3284,300.6101,0,U,35873,999,6142,0,-.247E-5,0
AMAZONAS 2,2009-054A,2026-06-25T12:15:23.934816,1.00271374,.00034973,1.8373,82.9539,13.3015,289.2527,0,U,35942,999,6126,0,-.25E-5,0
COMSATBW-1,2009-054B,2026-06-25T12:53:56.539680,1.00271150,.0003124,0.0578,141.2225,312.9582,75.9892,0,U,35943,999,6139,0,.35E-6,0
NSS-12,2009-058A,2026-06-25T12:52:11.707104,1.00272323,.0004974,0.0780,276.4936,146.3671,100.8628,0,U,36032,999,6100,0,.82E-6,0
THOR 6,2009-058B,2026-06-25T07:27:47.771712,1.00272951,.00020374,0.0203,262.0343,200.3409,282.1950,0,U,36033,999,6108,0,0,0
INTELSAT 14 (IS-14),2009-064A,2026-06-25T08:57:47.255040,1.00272408,.00026073,0.0177,7.5777,84.7183,270.6608,0,U,36097,999,6068,0,-.264E-5,0
EUTELSAT 36B,2009-065A,2026-06-25T12:50:19.387104,1.00272293,.00058055,0.5123,81.2286,11.3359,64.1647,0,U,36101,999,6079,0,.122E-5,0
INTELSAT 15 (IS-15),2009-067A,2026-06-25T13:00:03.452832,1.00271734,.0002497,0.0130,29.1422,68.4736,96.2280,0,U,36106,999,4131,0,-.175E-5,0
WGS F3 (USA 211),2009-068A,2026-06-25T06:50:56.124384,1.00270516,.00004368,0.3171,85.8358,2.5567,157.7699,0,U,36108,999,4667,0,.74E-6,0
DIRECTV 12,2009-075A,2026-06-25T12:06:39.771936,1.00271037,.00002631,0.0372,153.7847,348.7482,210.0484,0,U,36131,999,4663,0,-.93E-6,0
BEIDOU-2 G1,2010-001A,2026-06-25T13:15:56.506176,1.00273603,.00024508,4.3136,60.3906,306.7821,245.9639,0,U,36287,999,6025,0,-.273E-5,0
SDO,2010-005A,2026-06-25T07:38:09.280608,1.00270663,.00016799,34.6685,86.2181,50.5603,149.0403,0,U,36395,999,6014,0,-.93E-6,0
INTELSAT 16 (IS-16),2010-006A,2026-06-25T08:48:55.604736,1.00271091,.00023813,0.0098,23.0120,86.6165,219.9025,0,U,36397,999,5973,0,-.235E-5,0
EWS-G2 (GOES 15),2010-008A,2026-06-25T00:15:21.741984,1.00267909,.00052141,1.2993,82.7471,42.2541,215.5751,0,U,36411,999,5971,0,.29E-6,0
ECHOSTAR 14,2010-010A,2026-06-25T12:02:02.714784,1.00275000,.0002603,0.0290,278.3600,180.6586,236.2433,0,U,36499,999,4663,0,.1E-6,0
SES-1,2010-016A,2026-06-25T12:07:09.724224,1.00272118,.00029488,0.0317,297.7669,151.4186,265.2431,0,U,36516,999,5911,0,-.104E-5,0
ASTRA 3B,2010-021A,2026-06-25T12:42:27.641376,1.00274749,.00040861,1.4906,83.4516,13.9325,30.4160,0,U,36581,999,5895,0,.146E-5,0
COMSATBW-2,2010-021B,2026-06-25T07:31:32.412576,1.00279005,.00029653,0.0475,182.1727,289.4191,288.0377,0,U,36582,999,5903,0,.1E-5,0
BEIDOU-2 G3,2010-024A,2026-06-25T01:22:51.674592,1.00271083,.00080804,4.5350,61.4911,354.6381,317.4712,0,U,36590,999,5884,0,-.13E-5,0
BADR-5,2010-025A,2026-06-25T12:44:42.426240,1.00279429,.00046461,0.0472,152.5405,34.6814,308.1888,0,U,36592,999,5330,0,.164E-5,0
COMS 1,2010-032A,2026-06-25T08:38:38.566176,0.99165844,.00118942,4.8261,75.2625,12.7846,355.9585,0,U,36744,999,5117,0,.67E-6,0
ARABSAT-5A,2010-032B,2026-06-25T12:44:42.426240,1.00271175,.00056345,0.0677,50.6400,60.9757,23.7121,0,U,36745,999,5873,0,.164E-5,0
ECHOSTAR 15,2010-034A,2026-06-25T12:02:02.714784,1.00272048,.00022157,0.0103,358.1536,79.3598,257.8203,0,U,36792,999,5840,0,.1E-6,0
BEIDOU-2 IGSO-1,2010-036A,2026-06-25T09:40:59.151360,1.00269899,.00590618,54.3046,162.8849,225.4119,138.0578,0,U,36828,999,5818,0,-.49E-6,0
NILESAT 201,2010-037A,2026-06-25T09:08:38.713632,1.00271229,.00050806,0.0401,149.9613,329.5183,284.2058,0,U,36830,999,5845,0,-.48E-6,0
RASCOM-QAF 1R,2010-037B,2026-06-25T07:28:47.676288,1.00271704,.00066178,0.0170,62.0279,26.3614,300.1532,0,U,36831,999,5838,0,.28E-6,0
AEHF-1 (USA 214),2010-039A,2026-06-24T19:37:56.904672,1.00279243,.00042294,8.2384,67.9563,11.1655,158.4174,0,U,36868,999,5373,0,.15E-5,0
XM-5,2010-053A,2026-06-25T12:03:10.106784,1.00271055,.00026783,0.0617,272.1965,281.8942,145.1396,0,U,37185,999,5756,0,-.13E-6,0
BSAT-3B,2010-056B,2026-06-25T09:41:59.055072,1.00271598,.00018958,0.0755,245.9101,275.2336,7.7341,0,U,37207,999,5218,0,-.34E-5,0
BEIDOU-2 G4,2010-057A,2026-06-25T12:17:09.157920,1.00271362,.00048381,3.6681,68.9065,194.0255,354.9878,0,U,37210,999,5737,0,-.106E-5,0
SKYTERRA 1,2010-061A,2026-06-25T04:55:38.716608,1.00272924,.00024377,5.1422,50.8502,21.3940,173.6948,0,U,37218,999,5727,0,-.113E-5,0
HYLAS 1,2010-065A,2026-06-24T00:37:23.176416,1.00273914,.00010524,5.6614,72.9389,336.6605,245.7390,0,U,37237,999,695,0,.93E-6,0
INTELSAT 17 (IS-17),2010-065B,2026-06-25T12:54:48.955968,1.00272244,.00027996,0.0401,147.0669,306.9730,79.3297,0,U,37238,999,5333,0,.9E-7,0
BEIDOU-2 IGSO-2,2010-068A,2026-06-24T16:14:12.098688,1.00281062,.00560425,47.5326,271.7373,213.3814,139.3528,0,U,37256,999,5686,0,-.223E-5,0
EUTELSAT KA-SAT 9A,2010-069A,2026-06-25T12:38:21.733152,1.00270328,.00037245,0.0599,12.0459,120.3470,339.8602,0,U,37258,999,4409,0,.71E-6,0
